{"type": "FeatureCollection", "features": [ {"type": "Feature", "properties": {"norad_id": 38552, "name": "METEOSAT-10 (MSG-3)", "group": "weather", "lat": 4.0404915811709685, "lon": 168.96693675450194, "alt_km": 35787.254914159384, "timestamp": "2025-12-14T05:42:18.099111+00:00", "meta": {"OBJECT_NAME": "METEOSAT-10 (MSG-3)", "OBJECT_ID": "2012-035B", "EPOCH": "2025-12-13T08:18:50.272416", "MEAN_MOTION": 1.00275206, "ECCENTRICITY": 7.549e-05, "INCLINATION": 4.2305, "RA_OF_ASC_NODE": 61.7236, "ARG_OF_PERICENTER": 255.6128, "MEAN_ANOMALY": 249.8383, "EPHEMERIS_TYPE": 0, "CLASSIFICATION_TYPE": "U", "NORAD_CAT_ID": 38552, "ELEMENT_SET_NO": 999, "REV_AT_EPOCH": 4899, "BSTAR": 0, "MEAN_MOTION_DOT": 8e-08, "MEAN_MOTION_DDOT": 0}, "tle": {"line1": "1 38552U 12035B   25347.34641519  .00000008  00000+0  00000+0 0  9994", "line2": "2 38552   4.2305  61.7236 0000754 255.6128 249.8383  1.00275206 48999"}}, "geometry": {"type": "Point", "coordinates": [168.96693675450194, 4.0404915811709685]}}, {"type": "Feature", "properties": {"norad_id": 38771, "name": "METOP-B", "group": "weather", "lat": -8.734725264429292, "lon": -143.17379620289736, "alt_km": 823.1597282057865, "timestamp": "2025-12-14T05:42:18.099123+00:00", "meta": {"OBJECT_NAME": "METOP-B", "OBJECT_ID": "2012-049A", "EPOCH": "2025-12-13T15:18:17.332704", "MEAN_MOTION": 14.21408778, "ECCENTRICITY": 0.00029511, "INCLINATION": 98.68, "RA_OF_ASC_NODE": 37.5813, "ARG_OF_PERICENTER": 142.1848, "MEAN_ANOMALY": 217.9538, "EPHEMERIS_TYPE": 0, "CLASSIFICATION_TYPE": "U", "NORAD_CAT_ID": 38771, "ELEMENT_SET_NO": 999, "REV_AT_EPOCH": 68690, "BSTAR": 0.00011229394, "MEAN_MOTION_DOT": 2.02e-06, "MEAN_MOTION_DDOT": 0}, "tle": {"line1": "1 38771U 12049A   25347.63770061  .00000202  00000+0  11229-3 0  9994", "line2": "2 38771  98.6800  37.5813 0002951 142.1848 217.9538 14.21408778686907"}}, "geometry": {"type": "Point", "coordinates": [-143.17379620289736, -8.734725264429292]}}, {"type": "Feature", "properties": {"norad_id": 39216, "name": "INSAT-3D", "group": "weather", "lat": -0.807937726269765, "lon": -61.74685060838702, "alt_km": 35782.96366218508, "timestamp": "2025-12-14T05:42:18.099135+00:00", "meta": {"OBJECT_NAME": "INSAT-3D", "OBJECT_ID": "2013-038B", "EPOCH": "2025-12-13T15:46:37.386624", "MEAN_MOTION": 1.00269634, "ECCENTRICITY": 0.00013884, "INCLINATION": 1.4473, "RA_OF_ASC_NODE": 84.9848, "ARG_OF_PERICENTER": 164.9236, "MEAN_ANOMALY": 198.861, "EPHEMERIS_TYPE": 0, "CLASSIFICATION_TYPE": "U", "NORAD_CAT_ID": 39216, "ELEMENT_SET_NO": 999, "REV_AT_EPOCH": 4522, "BSTAR": 0, "MEAN_MOTION_DOT": -3.24e-06, "MEAN_MOTION_DDOT": 0}, "tle": {"line1": "1 39216U 13038B   25347.65737716 -.00000324  00000+0  00000+0 0  9997", "line2": "2 39216   1.4473  84.9848 0001388 164.9236 198.8610  1.00269634 45221"}}, "geometry": {"type": "Point", "coordinates": [-61.74685060838702, -0.807937726269765]}}, {"type": "Feature", "properties": {"norad_id": 39260, "name": "FENGYUN 3C", "group": "weather", "lat": 44.12692261315757, "lon": -42.47293011705679, "alt_km": 844.8383947379734, "timestamp": "2025-12-14T05:42:18.099166+00:00", "meta": {"OBJECT_NAME": "FENGYUN 3C", "OBJECT_ID": "2013-052A", "EPOCH": "2025-12-13T15:55:26.023296", "MEAN_MOTION": 14.1569669, "ECCENTRICITY": 0.00143435, "INCLINATION": 98.4764, "RA_OF_ASC_NODE": 325.2978, "ARG_OF_PERICENTER": 193.3256, "MEAN_ANOMALY": 166.7542, "EPHEMERIS_TYPE": 0, "CLASSIFICATION_TYPE": "U", "NORAD_CAT_ID": 39260, "ELEMENT_SET_NO": 999, "REV_AT_EPOCH": 63231, "BSTAR": 0.00010770121, "MEAN_MOTION_DOT": 1.7e-06, "MEAN_MOTION_DDOT": 0}, "tle": {"line1": "1 39260U 13052A   25347.66349564  .00000170  00000+0  10770-3 0  9990", "line2": "2 39260  98.4764 325.2978 0014343 193.3256 166.7542 14.15696690632313"}}, "geometry": {"type": "Point", "coordinates": [-42.47293011705679, 44.12692261315757]}}, {"type": "Feature", "properties": {"norad_id": 40069, "name": "METEOR-M 2", "group": "weather", "lat": 55.85182745774299, "lon": -46.95763607176263, "alt_km": 818.3600841242169, "timestamp": "2025-12-14T05:42:18.099180+00:00", "meta": {"OBJECT_NAME": "METEOR-M 2", "OBJECT_ID": "2014-037A", "EPOCH": "2025-12-13T15:55:22.315008", "MEAN_MOTION": 14.21385995, "ECCENTRICITY": 0.00049859, "INCLINATION": 98.4904, "RA_OF_ASC_NODE": 325.2125, "ARG_OF_PERICENTER": 206.7525, "MEAN_ANOMALY": 153.3397, "EPHEMERIS_TYPE": 0, "CLASSIFICATION_TYPE": "U", "NORAD_CAT_ID": 40069, "ELEMENT_SET_NO": 999, "REV_AT_EPOCH": 59296, "BSTAR": 4.7693351e-05, "MEAN_MOTION_DOT": 6.2e-07, "MEAN_MOTION_DDOT": 0}, "tle": {"line1": "1 40069U 14037A   25347.66345272  .00000062  00000+0  47693-4 0  9990", "line2": "2 40069  98.4904 325.2125 0004985 206.7525 153.3397 14.21385995592967"}}, "geometry": {"type": "Point", "coordinates": [-46.95763607176263, 55.85182745774299]}}, {"type": "Feature", "properties": {"norad_id": 40267, "name": "HIMAWARI-8", "group": "weather", "lat": 0.01169528448213031, "lon": -50.611515621691474, "alt_km": 35782.033043950396, "timestamp": "2025-12-14T05:42:18.099193+00:00", "meta": {"OBJECT_NAME": "HIMAWARI-8", "OBJECT_ID": "2014-060A", "EPOCH": "2025-12-13T15:49:52.076928", "MEAN_MOTION": 1.00273564, "ECCENTRICITY": 9.701e-05, "INCLINATION": 0.0378, "RA_OF_ASC_NODE": 175.7781, "ARG_OF_PERICENTER": 105.5147, "MEAN_ANOMALY": 179.4177, "EPHEMERIS_TYPE": 0, "CLASSIFICATION_TYPE": "U", "NORAD_CAT_ID": 40267, "ELEMENT_SET_NO": 999, "REV_AT_EPOCH": 4090, "BSTAR": 0, "MEAN_MOTION_DOT": -2.6e-06, "MEAN_MOTION_DDOT": 0}, "tle": {"line1": "1 40267U 14060A   25347.65963052 -.00000260  00000+0  00000+0 0  9994", "line2": "2 40267   0.0378 175.7781 0000970 105.5147 179.4177  1.00273564 40901"}}, "geometry": {"type": "Point", "coordinates": [-50.611515621691474, 0.01169528448213031]}}, {"type": "Feature", "properties": {"norad_id": 40367, "name": "FENGYUN 2G", "group": "weather", "lat": -1.1938246942897321, "lon": -91.83662899113517, "alt_km": 35775.57585086422, "timestamp": "2025-12-14T05:42:18.099206+00:00", "meta": {"OBJECT_NAME": "FENGYUN 2G", "OBJECT_ID": "2014-090A", "EPOCH": "2025-12-13T17:07:51.695328", "MEAN_MOTION": 1.00263873, "ECCENTRICITY": 0.00030786, "INCLINATION": 5.1711, "RA_OF_ASC_NODE": 75.0873, "ARG_OF_PERICENTER": 199.2881, "MEAN_ANOMALY": 164.7338, "EPHEMERIS_TYPE": 0, "CLASSIFICATION_TYPE": "U", "NORAD_CAT_ID": 40367, "ELEMENT_SET_NO": 999, "REV_AT_EPOCH": 4014, "BSTAR": 0, "MEAN_MOTION_DOT": -2.86e-06, "MEAN_MOTION_DDOT": 0}, "tle": {"line1": "1 40367U 14090A   25347.71379277 -.00000286  00000+0  00000+0 0  9993", "line2": "2 40367   5.1711  75.0873 0003078 199.2881 164.7338  1.00263873 40144"}}, "geometry": {"type": "Point", "coordinates": [-91.83662899113517, -1.1938246942897321]}}, {"type": "Feature", "properties": {"norad_id": 40732, "name": "METEOSAT-11 (MSG-4)", "group": "weather", "lat": 2.6262284402433234, "lon": 178.0112769075, "alt_km": 35783.22748586548, "timestamp": "2025-12-14T05:42:18.099218+00:00", "meta": {"OBJECT_NAME": "METEOSAT-11 (MSG-4)", "OBJECT_ID": "2015-034A", "EPOCH": "2025-12-13T15:12:18.174816", "MEAN_MOTION": 1.00267769, "ECCENTRICITY": 9.235e-05, "INCLINATION": 2.7377, "RA_OF_ASC_NODE": 71.9991, "ARG_OF_PERICENTER": 128.2117, "MEAN_ANOMALY": 119.7054, "EPHEMERIS_TYPE": 0, "CLASSIFICATION_TYPE": "U", "NORAD_CAT_ID": 40732, "ELEMENT_SET_NO": 999, "REV_AT_EPOCH": 535, "BSTAR": 0, "MEAN_MOTION_DOT": 7.6e-07, "MEAN_MOTION_DDOT": 0}, "tle": {"line1": "1 40732U 15034A   25347.63354369  .00000076  00000+0  00000+0 0  9990", "line2": "2 40732   2.7377  71.9991 0000923 128.2117 119.7054  1.00267769  5354"}}, "geometry": {"type": "Point", "coordinates": [178.0112769075, 2.6262284402433234]}}, {"type": "Feature", "properties": {"norad_id": 41105, "name": "ELEKTRO-L 2", "group": "weather", "lat": 6.1638757778008, "lon": 154.1492819767261, "alt_km": 35793.95125672852, "timestamp": "2025-12-14T05:42:18.099230+00:00", "meta": {"OBJECT_NAME": "ELEKTRO-L 2", "OBJECT_ID": "2015-074A", "EPOCH": "2025-12-13T00:37:38.678304", "MEAN_MOTION": 1.00272374, "ECCENTRICITY": 0.00038946, "INCLINATION": 6.2268, "RA_OF_ASC_NODE": 72.8255, "ARG_OF_PERICENTER": 203.8607, "MEAN_ANOMALY": 160.1915, "EPHEMERIS_TYPE": 0, "CLASSIFICATION_TYPE": "U", "NORAD_CAT_ID": 41105, "ELEMENT_SET_NO": 999, "REV_AT_EPOCH": 3664, "BSTAR": 0, "MEAN_MOTION_DOT": -1.06e-06, "MEAN_MOTION_DDOT": 0}, "tle": {"line1": "1 41105U 15074A   25347.02614211 -.00000106  00000+0  00000+0 0  9992", "line2": "2 41105   6.2268  72.8255 0003894 203.8607 160.1915  1.00272374 36644"}}, "geometry": {"type": "Point", "coordinates": [154.1492819767261, 6.1638757778008]}}, {"type": "Feature", "properties": {"norad_id": 41752, "name": "INSAT-3DR", "group": "weather", "lat": 0.01583548296557533, "lon": -117.36016810455894, "alt_km": 35732.79163432793, "timestamp": "2025-12-14T05:42:18.099243+00:00", "meta": {"OBJECT_NAME": "INSAT-3DR", "OBJECT_ID": "2016-054A", "EPOCH": "2025-12-13T13:48:11.230272", "MEAN_MOTION": 1.00271015, "ECCENTRICITY": 0.00143186, "INCLINATION": 0.094, "RA_OF_ASC_NODE": 86.7306, "ARG_OF_PERICENTER": 184.0586, "MEAN_ANOMALY": 92.7569, "EPHEMERIS_TYPE": 0, "CLASSIFICATION_TYPE": "U", "NORAD_CAT_ID": 41752, "ELEMENT_SET_NO": 999, "REV_AT_EPOCH": 3395, "BSTAR": 0, "MEAN_MOTION_DOT": -6.2e-07, "MEAN_MOTION_DDOT": 0}, "tle": {"line1": "1 41752U 16054A   25347.57512998 -.00000062  00000+0  00000+0 0  9999", "line2": "2 41752   0.0940  86.7306 0014318 184.0586  92.7569  1.00271015 33958"}}, "geometry": {"type": "Point", "coordinates": [-117.36016810455894, 0.01583548296557533]}}]}